[Satellite]
VERSION=1.1
NAME=FLOCK 3P-2
NICKNAME=FLOCK 3P-2
TLE1=1 41966U 17008U   17186.11877255  .00003054  00000-0  13494-3 0  9997
TLE2=2 41966  97.4949 247.3743 0010225 123.4068 236.8148 15.22454486 21101
